NORAD_CAT_ID,OBJECT_NAME,OBJECT_TYPE,EPOCH,MEAN_MOTION,ECCENTRICITY,INCLINATION,RA_OF_ASC_NODE,ARG_OF_PERICENTER,MEAN_ANOMALY,BSTAR,MEAN_MOTION_DOT,MEAN_MOTION_DDOT,TLE_LINE0,TLE_LINE1,TLE_LINE2,SEMIMAJOR_AXIS,PERIOD,APOGEE,PERIGEE,DECAYED
53600.0,STARLINK-4677,PAYLOAD,2024-08-05 14:19:05,15.08854383,0.0001294,53.218,333.1535,98.588,261.5259,0.00018982,2.736e-05,0.0,0 STARLINK-4677,1 53600U 22104N   24218.59659091  .00002736  00000-0  18982-3 0  9993,2 53600  53.2180 333.1535 0001294  98.5880 261.5259 15.08854383107601,6917.836,95.437,540.597,538.806,0.0
53600.0,STARLINK-4677,PAYLOAD,2024-08-06 12:34:30,15.08833451,0.0001494,53.217,328.9877,90.8159,269.3004,-2.7189e-05,-7.21e-06,0.0,0 STARLINK-4677,1 53600U 22104N   24219.52396716 -.00000721  00000-0 -27189-4 0  9993,2 53600  53.2170 328.9877 0001494  90.8159 269.3004 15.08833451107749,6917.9,95.438,540.799,538.732,0.0
53600.0,STARLINK-4677,PAYLOAD,2024-08-06 14:09:53,15.08833279,0.0001539,53.217,328.692,94.9733,265.1435,-4.1379e-05,-9.46e-06,0.0,0 STARLINK-4677,1 53600U 22104N   24219.59020773 -.00000946  00000-0 -41379-4 0  9993,2 53600  53.2170 328.6920 0001539  94.9733 265.1435 15.08833279108031,6917.901,95.438,540.831,538.701,0.0
53600.0,STARLINK-4677,PAYLOAD,2024-08-07 12:25:17,15.08851317,0.0001455,53.2174,324.5342,96.2887,263.8271,0.00016154,2.285e-05,0.0,0 STARLINK-4677,1 53600U 22104N   24220.51755964  .00002285  00000-0  16154-3 0  9992,2 53600  53.2174 324.5342 0001455  96.2887 263.8271 15.08851317107899,6917.846,95.437,540.717,538.704,0.0
53600.0,STARLINK-4677,PAYLOAD,2024-08-08 13:51:27,15.08851392,0.0001382,53.2164,319.7714,99.0333,261.0816,0.00033165,4.996e-05,0.0,0 STARLINK-4677,1 53600U 22104N   24221.57740044  .00004996  00000-0  33165-3 0  9994,2 53600  53.2164 319.7714 0001382  99.0333 261.0816 15.08851392108331,6917.846,95.437,540.667,538.755,0.0
53600.0,STARLINK-4677,PAYLOAD,2024-08-09 12:06:51,15.0884481,0.000147,53.2166,315.6182,91.6271,268.4889,1.2516e-05,-8.9e-07,0.0,0 STARLINK-4677,1 53600U 22104N   24222.50476285 -.00000089  00000-0  12516-4 0  9999,2 53600  53.2166 315.6182 0001470  91.6271 268.4889 15.08844810108196,6917.866,95.437,540.748,538.714,0.0
53600.0,STARLINK-4677,PAYLOAD,2024-08-09 13:42:14,15.08849061,0.0001616,53.2171,315.3129,70.9699,289.1468,6.6361e-05,7.69e-06,0.0,0 STARLINK-4677,1 53600U 22104N   24222.57100151  .00000769  00000-0  66361-4 0  9993,2 53600  53.2171 315.3129 0001616  70.9699 289.1468 15.08849061108484,6917.853,95.437,540.836,538.6,0.0
53600.0,STARLINK-4677,PAYLOAD,2024-08-09 15:17:37,15.08852777,0.0001473,53.217,315.0132,85.5047,274.6114,0.00011147,1.487e-05,0.0,0 STARLINK-4677,1 53600U 22104N   24222.63723686  .00001487  00000-0  11147-3 0  9993,2 53600  53.2170 315.0132 0001473  85.5047 274.6114 15.08852777108210,6917.841,95.437,540.725,538.687,0.0
53600.0,STARLINK-4677,PAYLOAD,2024-08-10 05:36:06,15.08827171,0.0001247,53.2156,312.3393,100.6875,259.4258,-0.00025513,-4.344e-05,0.0,0 STARLINK-4677,1 53600U 22104N   24223.23340801 -.00004344  00000-0 -25513-3 0  9993,2 53600  53.2156 312.3393 0001247 100.6875 259.4258 15.08827171108300,6917.92,95.438,540.647,538.922,0.0
53600.0,STARLINK-4677,PAYLOAD,2024-08-10 13:33:01,15.08847735,0.0001382,53.2161,310.8498,101.4426,258.6722,0.00030791,4.617e-05,0.0,0 STARLINK-4677,1 53600U 22104N   24223.56460467  .00004617  00000-0  30791-3 0  9995,2 53600  53.2161 310.8498 0001382 101.4426 258.6722 15.08847735108637,6917.857,95.437,540.678,538.766,0.0
53600.0,STARLINK-4677,PAYLOAD,2024-08-10 23:05:21,15.08833518,0.00013,53.2168,309.0674,93.7914,266.3227,4.2967e-05,3.96e-06,0.0,0 STARLINK-4677,1 53600U 22104N   24223.96204967  .00000396  00000-0  42967-4 0  9999,2 53600  53.2168 309.0674 0001300  93.7914 266.3227 15.08833518108411,6917.9,95.438,540.665,538.866,0.0
53600.0,STARLINK-4677,PAYLOAD,2024-08-11 11:48:26,15.08826173,0.0001319,53.2157,306.6861,101.2567,258.8574,-6.343e-05,-1.297e-05,0.0,0 STARLINK-4677,1 53600U 22104N   24224.49197867 -.00001297  00000-0 -63430-4 0  9999,2 53600  53.2157 306.6861 0001319 101.2567 258.8574 15.08826173108497,6917.923,95.438,540.7,538.875,0.0
53600.0,STARLINK-4677,PAYLOAD,2024-08-11 14:59:12,15.08852882,0.0001772,53.2164,306.0933,94.4329,265.6865,0.00027801,4.141e-05,0.0,0 STARLINK-4677,1 53600U 22104N   24224.62444860  .00004141  00000-0  27801-3 0  9992,2 53600  53.2164 306.0933 0001772  94.4329 265.6865 15.08852882108519,6917.841,95.437,540.932,538.48,0.0
53600.0,STARLINK-4677,PAYLOAD,2024-08-12 11:39:12,15.08853305,0.0001507,53.2166,302.2271,88.9322,271.1842,0.00021044,3.064e-05,0.0,0 STARLINK-4677,1 53600U 22104N   24225.48556693  .00003064  00000-0  21044-3 0  9991,2 53600  53.2166 302.2271 0001507  88.9322 271.1842 15.08853305108643,6917.84,95.437,540.747,538.662,0.0
53600.0,STARLINK-4677,PAYLOAD,2024-08-12 16:25:21,15.08867692,0.0001666,53.2163,301.3365,78.1871,281.9308,0.0004085,6.224e-05,0.0,0 STARLINK-4677,1 53600U 22104N   24225.68427625  .00006224  00000-0  40850-3 0  9992,2 53600  53.2163 301.3365 0001666  78.1871 281.9308 15.08867692108673,6917.796,95.436,540.813,538.508,0.0
53600.0,STARLINK-4677,PAYLOAD,2024-08-12 22:46:55,15.08835975,0.0001546,53.2171,300.1465,100.1599,259.9567,-4.475e-05,-1e-05,0.0,0 STARLINK-4677,1 53600U 22104N   24225.94925139 -.00001000  00000-0 -44750-4 0  9997,2 53600  53.2171 300.1465 0001546 100.1599 259.9567 15.08835975108716,6917.893,95.438,540.827,538.688,0.0
53600.0,STARLINK-4677,PAYLOAD,2024-08-13 11:30:03,15.08772799,0.000118,53.2144,297.7669,83.9179,276.1948,-0.0011426,-0.00018393,0.0,0 STARLINK-4677,1 53600U 22104N   24226.47920185 -.00018393  00000-0 -11426-2 0  9997,2 53600  53.2144 297.7669 0001180  83.9179 276.1948 15.08772799108795,6918.086,95.442,540.767,539.134,0.0
53600.0,STARLINK-4677,PAYLOAD,2024-08-14 04:59:16,15.08826482,0.0001825,53.2155,294.4965,96.9465,263.1735,-3.6224e-05,-8.64e-06,0.0,0 STARLINK-4677,1 53600U 22104N   24227.20783062 -.00000864  00000-0 -36224-4 0  9999,2 53600  53.2155 294.4965 0001825  96.9465 263.1735 15.08826482108900,6917.922,95.438,541.049,538.524,0.0
53600.0,STARLINK-4677,PAYLOAD,2024-08-14 11:20:48,15.08842737,0.0001687,53.2152,293.3115,90.1254,269.9932,0.00035107,5.304e-05,0.0,0 STARLINK-4677,1 53600U 22104N   24227.47278767  .00005304  00000-0  35107-3 0  9999,2 53600  53.2152 293.3115 0001687  90.1254 269.9932 15.08842737108948,6917.872,95.437,540.904,538.57,0.0
53600.0,STARLINK-4677,PAYLOAD,2024-08-14 20:53:08,15.08842727,0.0001622,53.2153,291.527,96.4728,263.6449,0.00061785,9.559e-05,0.0,0 STARLINK-4677,1 53600U 22104N   24227.87023191  .00009559  00000-0  61785-3 0  9999,2 53600  53.2153 291.5270 0001622  96.4728 263.6449 15.08842727109286,6917.872,95.437,540.859,538.615,0.0
53600.0,STARLINK-4677,PAYLOAD,2024-08-15 11:11:35,15.08860192,0.0001654,53.2163,288.8472,97.3061,262.8119,0.0004779,7.33e-05,0.0,0 STARLINK-4677,1 53600U 22104N   24228.46638431  .00007330  00000-0  47790-3 0  9999,2 53600  53.2163 288.8472 0001654  97.3061 262.8119 15.08860192109376,6917.819,95.436,540.828,538.539,0.0
53600.0,STARLINK-4677,PAYLOAD,2024-08-15 20:43:54,15.08853379,9.84e-05,53.2153,287.0598,64.6111,295.4983,0.00024129,3.556e-05,0.0,0 STARLINK-4677,1 53600U 22104N   24228.86382050  .00003556  00000-0  24129-3 0  9993,2 53600  53.2153 287.0598 0000984  64.6111 295.4983 15.08853379109159,6917.839,95.437,540.385,539.024,0.0
53600.0,STARLINK-4677,PAYLOAD,2024-08-16 09:26:59,15.088468,0.0001459,53.2149,284.6837,91.7622,268.3537,-2.6092e-05,-7.03e-06,0.0,0 STARLINK-4677,1 53600U 22104N   24229.39374174 -.00000703  00000-0 -26092-4 0  9995,2 53600  53.2149 284.6837 0001459  91.7622 268.3537 15.08846800109233,6917.86,95.437,540.734,538.715,0.0
53600.0,STARLINK-4677,PAYLOAD,2024-08-17 07:42:22,15.08847898,0.0001453,53.2145,280.52,85.3917,274.7241,8.1174e-05,1.004e-05,0.0,0 STARLINK-4677,1 53600U 22104N   24230.32109843  .00001004  00000-0  81174-4 0  9994,2 53600  53.2145 280.5200 0001453  85.3917 274.7241 15.08847898109655,6917.856,95.437,540.726,538.716,0.0
53600.0,STARLINK-4677,PAYLOAD,2024-08-18 02:47:00,15.08844198,0.0001567,53.2149,276.9531,91.8651,268.2521,9.6047e-05,1.241e-05,0.0,0 STARLINK-4677,1 53600U 22104N   24231.11597969  .00001241  00000-0  96047-4 0  9990,2 53600  53.2149 276.9531 0001567  91.8651 268.2521 15.08844198109499,6917.868,95.437,540.817,538.649,0.0
53600.0,STARLINK-4677,PAYLOAD,2024-08-18 12:19:19,15.08846511,0.0001511,53.2146,275.1684,86.9049,273.2116,8.8942e-05,1.128e-05,0.0,0 STARLINK-4677,1 53600U 22104N   24231.51341755  .00001128  00000-0  88942-4 0  9993,2 53600  53.2146 275.1684 0001511  86.9049 273.2116 15.08846511109836,6917.86,95.437,540.771,538.68,0.0
53600.0,STARLINK-4677,PAYLOAD,2024-08-19 02:37:47,15.08834799,0.0001523,53.2145,272.4915,102.6875,257.4287,-6.3343e-06,-3.89e-06,0.0,0 STARLINK-4677,1 53600U 22104N   24232.10958311 -.00000389  00000-0 -63343-5 0  9990,2 53600  53.2145 272.4915 0001523 102.6875 257.4287 15.08834799109645,6917.896,95.438,540.815,538.708,0.0
53600.0,STARLINK-4677,PAYLOAD,2024-08-19 12:10:04,15.08869815,0.0001373,53.2154,270.7069,89.8509,270.264,0.00027932,4.164e-05,0.0,0 STARLINK-4677,1 53600U 22104N   24232.50699531  .00004164  00000-0  27932-3 0  9995,2 53600  53.2154 270.7069 0001373  89.8509 270.2640 15.08869815109709,6917.789,95.436,540.604,538.704,0.0
53600.0,STARLINK-4677,PAYLOAD,2024-08-20 08:50:07,15.08835137,0.0001411,53.2151,266.8409,96.4665,263.6488,-2.2358e-05,-6.44e-06,0.0,0 STARLINK-4677,1 53600U 22104N   24233.36814229 -.00000644  00000-0 -22358-4 0  9992,2 53600  53.2151 266.8409 0001411  96.4665 263.6488 15.08835137109830,6917.895,95.438,540.736,538.784,0.0
53600.0,STARLINK-4677,PAYLOAD,2024-08-21 08:40:54,15.08846384,0.0001395,53.2149,262.3805,93.9964,266.1188,-0.00014179,-2.544e-05,0.0,0 STARLINK-4677,1 53600U 22104N   24234.36174245 -.00002544  00000-0 -14179-3 0  9992,2 53600  53.2149 262.3805 0001395  93.9964 266.1188 15.08846384110263,6917.861,95.437,540.691,538.761,0.0
